start=new Date('2021-11-30T00:00:00.000Z').valueOf();
sats=[{"SEMIMAJOR_AXIS":"6925.363","NORAD_CAT_ID":"46077","REV_AT_EPOCH":"7389","ELEMENT_SET_NO":"999","GP_ID":"190719453","PERIOD":"95.592","DECAY_DATE":null,"TLE_LINE2":"2 46077  53.0540 266.9217 0001683  61.7905 298.3254 15.06395432 73890","EPOCH":"2021-11-29T02:06:13.206240","ARG_OF_PERICENTER":"61.7905","COUNTRY_CODE":"US","RA_OF_ASC_NODE":"266.9217","SITE":"AFETR","MEAN_MOTION_DDOT":"0.0000000000000","OBJECT_ID":"2020-055BC","TIME_SYSTEM":"UTC","REF_FRAME":"TEME","OBJECT_TYPE":"PAYLOAD","CENTER_NAME":"EARTH","FILE":"3226898","APOAPSIS":"548.393","TLE_LINE1":"1 46077U 20055BC  21333.08765285 -.00000042  00000-0  16069-4 0  9992","MEAN_ELEMENT_THEORY":"SGP4","MEAN_ANOMALY":"298.3254","RCS_SIZE":"LARGE","EPHEMERIS_TYPE":"0","INCLINATION":"53.0540","PERIAPSIS":"546.062","MEAN_MOTION":"15.06395432","OBJECT_NAME":"STARLINK-1559","BSTAR":"0.00001606900000","LAUNCH_DATE":"2020-08-07","ECCENTRICITY":"0.00016830","MEAN_MOTION_DOT":"-0.00000042","CLASSIFICATION_TYPE":"U"},{"TLE_LINE1":"1 46078U 20055BD  21333.92804549  .00001357  00000-0  10997-3 0  9995","APOAPSIS":"548.612","FILE":"3227094","CENTER_NAME":"EARTH","REF_FRAME":"TEME","OBJECT_TYPE":"PAYLOAD","OBJECT_ID":"2020-055BD","TIME_SYSTEM":"UTC","LAUNCH_DATE":"2020-08-07","BSTAR":"0.00010997000000","ECCENTRICITY":"0.00020160","CLASSIFICATION_TYPE":"U","MEAN_MOTION_DOT":"0.00001357","OBJECT_NAME":"STARLINK-1563","MEAN_MOTION":"15.06399340","PERIAPSIS":"545.819","MEAN_ANOMALY":"295.7605","MEAN_ELEMENT_THEORY":"SGP4","RCS_SIZE":"LARGE","INCLINATION":"53.0553","EPHEMERIS_TYPE":"0","TLE_LINE2":"2 46078  53.0553 263.1577 0002016  64.3592 295.7605 15.06399340 74035","DECAY_DATE":null,"ELEMENT_SET_NO":"999","GP_ID":"190747297","PERIOD":"95.592","NORAD_CAT_ID":"46078","REV_AT_EPOCH":"7403","SEMIMAJOR_AXIS":"6925.351","MEAN_MOTION_DDOT":"0.0000000000000","SITE":"AFETR","RA_OF_ASC_NODE":"263.1577","COUNTRY_CODE":"US","ARG_OF_PERICENTER":"64.3592","EPOCH":"2021-11-29T22:16:23.130336"},{"MEAN_MOTION":"15.06405987","PERIAPSIS":"545.746","MEAN_ELEMENT_THEORY":"SGP4","MEAN_ANOMALY":"293.9199","EPHEMERIS_TYPE":"0","RCS_SIZE":"LARGE","INCLINATION":"53.0537","ECCENTRICITY":"0.00020930","LAUNCH_DATE":"2020-08-07","BSTAR":"-0.00012475000000","CLASSIFICATION_TYPE":"U","MEAN_MOTION_DOT":"-0.00002140","OBJECT_NAME":"STARLINK-1566","CENTER_NAME":"EARTH","REF_FRAME":"TEME","OBJECT_TYPE":"PAYLOAD","OBJECT_ID":"2020-055BE","TIME_SYSTEM":"UTC","TLE_LINE1":"1 46079U 20055BE  21333.92067601 -.00002140  00000-0 -12475-3 0  9992","APOAPSIS":"548.645","FILE":"3227094","ARG_OF_PERICENTER":"66.2009","EPOCH":"2021-11-29T22:05:46.407264","MEAN_MOTION_DDOT":"0.0000000000000","SITE":"AFETR","COUNTRY_CODE":"US","RA_OF_ASC_NODE":"263.1856","GP_ID":"190748048","ELEMENT_SET_NO":"999","PERIOD":"95.592","NORAD_CAT_ID":"46079","REV_AT_EPOCH":"7406","SEMIMAJOR_AXIS":"6925.330","TLE_LINE2":"2 46079  53.0537 263.1856 0002093  66.2009 293.9199 15.06405987 74063","DECAY_DATE":null},{"COUNTRY_CODE":"US","RA_OF_ASC_NODE":"266.3518","SITE":"AFETR","MEAN_MOTION_DDOT":"0.0000000000000","EPOCH":"2021-11-29T05:11:58.760448","ARG_OF_PERICENTER":"59.0983","DECAY_DATE":null,"TLE_LINE2":"2 46080  53.0532 266.3518 0002009  59.0983 301.0203 15.06406426 73423","SEMIMAJOR_AXIS":"6925.329","REV_AT_EPOCH":"7342","NORAD_CAT_ID":"46080","PERIOD":"95.592","GP_ID":"190690861","ELEMENT_SET_NO":"999","OBJECT_NAME":"STARLINK-1568","MEAN_MOTION_DOT":"0.00000696","CLASSIFICATION_TYPE":"U","LAUNCH_DATE":"2020-08-07","ECCENTRICITY":"0.00020090","BSTAR":"0.00006561500000","INCLINATION":"53.0532","RCS_SIZE":"LARGE","EPHEMERIS_TYPE":"0","MEAN_ANOMALY":"301.0203","MEAN_ELEMENT_THEORY":"SGP4","PERIAPSIS":"545.803","MEAN_MOTION":"15.06406426","FILE":"3226517","APOAPSIS":"548.585","TLE_LINE1":"1 46080U 20055BF  21333.21665232  .00000696  00000-0  65615-4 0  9997","OBJECT_ID":"2020-055BF","TIME_SYSTEM":"UTC","OBJECT_TYPE":"PAYLOAD","REF_FRAME":"TEME","CENTER_NAME":"EARTH"},{"MEAN_MOTION_DDOT":"0.0000000000000","SITE":"AFETR","COUNTRY_CODE":"US","RA_OF_ASC_NODE":"263.5164","ARG_OF_PERICENTER":"63.4255","EPOCH":"2021-11-29T20:19:36.658848","TLE_LINE2":"2 46081  53.0528 263.5164 0002049  63.4255 296.6944 15.06409767 74041","DECAY_DATE":null,"ELEMENT_SET_NO":"999","GP_ID":"190749027","PERIOD":"95.592","NORAD_CAT_ID":"46081","REV_AT_EPOCH":"7404","SEMIMAJOR_AXIS":"6925.319","LAUNCH_DATE":"2020-08-07","ECCENTRICITY":"0.00020490","BSTAR":"0.00035179000000","MEAN_MOTION_DOT":"0.00004963","CLASSIFICATION_TYPE":"U","OBJECT_NAME":"STARLINK-1571","MEAN_MOTION":"15.06409767","PERIAPSIS":"545.765","MEAN_ELEMENT_THEORY":"SGP4","MEAN_ANOMALY":"296.6944","EPHEMERIS_TYPE":"0","RCS_SIZE":"LARGE","INCLINATION":"53.0528","TLE_LINE1":"1 46081U 20055BG  21333.84695207  .00004963  00000-0  35179-3 0  9994","APOAPSIS":"548.603","FILE":"3227094","CENTER_NAME":"EARTH","REF_FRAME":"TEME","OBJECT_TYPE":"PAYLOAD","OBJECT_ID":"2020-055BG","TIME_SYSTEM":"UTC"},{"LAUNCH_DATE":"2020-08-07","BSTAR":"0.00018126000000","ECCENTRICITY":"0.00018870","CLASSIFICATION_TYPE":"U","MEAN_MOTION_DOT":"0.00002419","OBJECT_NAME":"STARLINK-1578","PERIAPSIS":"545.903","MEAN_ANOMALY":"295.8170","MEAN_ELEMENT_THEORY":"SGP4","INCLINATION":"53.0540","RCS_SIZE":"LARGE","EPHEMERIS_TYPE":"0","MEAN_MOTION":"15.06401309","TLE_LINE1":"1 46082U 20055BH  21333.53732661  .00002419  00000-0  18126-3 0  9994","APOAPSIS":"548.516","FILE":"3226784","OBJECT_ID":"2020-055BH","TIME_SYSTEM":"UTC","CENTER_NAME":"EARTH","REF_FRAME":"TEME","OBJECT_TYPE":"PAYLOAD","SITE":"AFETR","COUNTRY_CODE":"US","RA_OF_ASC_NODE":"264.9031","MEAN_MOTION_DDOT":"0.0000000000000","ARG_OF_PERICENTER":"64.3014","EPOCH":"2021-11-29T12:53:45.019104","TLE_LINE2":"2 46082  53.0540 264.9031 0001887  64.3014 295.8170 15.06401309 73478","DECAY_DATE":null,"NORAD_CAT_ID":"46082","REV_AT_EPOCH":"7347","SEMIMAJOR_AXIS":"6925.345","ELEMENT_SET_NO":"999","GP_ID":"190696917","PERIOD":"95.592"},{"EPOCH":"2021-11-29T20:09:00.134496","ARG_OF_PERICENTER":"68.3903","MEAN_MOTION_DDOT":"0.0000000000000","RA_OF_ASC_NODE":"263.5451","COUNTRY_CODE":"US","SITE":"AFETR","PERIOD":"95.592","ELEMENT_SET_NO":"999","GP_ID":"190748548","SEMIMAJOR_AXIS":"6925.355","REV_AT_EPOCH":"7404","NORAD_CAT_ID":"46083","DECAY_DATE":null,"TLE_LINE2":"2 46083  53.0539 263.5451 0002055  68.3903 291.7305 15.06397831 74040","MEAN_MOTION":"15.06397831","RCS_SIZE":"LARGE","INCLINATION":"53.0539","EPHEMERIS_TYPE":"0","MEAN_ANOMALY":"291.7305","MEAN_ELEMENT_THEORY":"SGP4","PERIAPSIS":"545.797","OBJECT_NAME":"STARLINK-1579","MEAN_MOTION_DOT":"0.00000451","CLASSIFICATION_TYPE":"U","BSTAR":"0.00004918900000","LAUNCH_DATE":"2020-08-07","ECCENTRICITY":"0.00020550","OBJECT_TYPE":"PAYLOAD","REF_FRAME":"TEME","CENTER_NAME":"EARTH","TIME_SYSTEM":"UTC","OBJECT_ID":"2020-055BJ","FILE":"3227094","TLE_LINE1":"1 46083U 20055BJ  21333.83958489  .00000451  00000-0  49189-4 0  9994","APOAPSIS":"548.643"},{"TLE_LINE2":"2 46117  53.0558 104.3027 0001483  85.0647 275.0511 15.06391963 71068","DECAY_DATE":null,"NORAD_CAT_ID":"46117","REV_AT_EPOCH":"7106","SEMIMAJOR_AXIS":"6925.373","GP_ID":"190748532","ELEMENT_SET_NO":"999","PERIOD":"95.593","SITE":"AFETR","COUNTRY_CODE":"US","RA_OF_ASC_NODE":"104.3027","MEAN_MOTION_DDOT":"0.0000000000000","ARG_OF_PERICENTER":"85.0647","EPOCH":"2021-11-29T16:10:09.309504","APOAPSIS":"548.265","TLE_LINE1":"1 46117U 20057A   21333.67371886 -.00000177  00000-0  70399-5 0  9990","FILE":"3227094","TIME_SYSTEM":"UTC","OBJECT_ID":"2020-057A","CENTER_NAME":"EARTH","REF_FRAME":"TEME","OBJECT_TYPE":"PAYLOAD","BSTAR":"0.00000703990000","LAUNCH_DATE":"2020-08-18","ECCENTRICITY":"0.00014830","MEAN_MOTION_DOT":"-0.00000177","CLASSIFICATION_TYPE":"U","OBJECT_NAME":"STARLINK-1585","PERIAPSIS":"546.211","MEAN_ELEMENT_THEORY":"SGP4","MEAN_ANOMALY":"275.0511","RCS_SIZE":"LARGE","EPHEMERIS_TYPE":"0","INCLINATION":"53.0558","MEAN_MOTION":"15.06391963"},{"OBJECT_ID":"2020-057B","TIME_SYSTEM":"UTC","CENTER_NAME":"EARTH","REF_FRAME":"TEME","OBJECT_TYPE":"PAYLOAD","APOAPSIS":"548.409","TLE_LINE1":"1 46118U 20057B   21333.88197561  .00000382  00000-0  44512-4 0  9994","FILE":"3227094","PERIAPSIS":"545.972","MEAN_ELEMENT_THEORY":"SGP4","MEAN_ANOMALY":"271.7691","EPHEMERIS_TYPE":"0","RCS_SIZE":"LARGE","INCLINATION":"53.0521","MEAN_MOTION":"15.06407484","BSTAR":"0.00004451200000","LAUNCH_DATE":"2020-08-18","ECCENTRICITY":"0.00017590","MEAN_MOTION_DOT":"0.00000382","CLASSIFICATION_TYPE":"U","OBJECT_NAME":"STARLINK-1588","NORAD_CAT_ID":"46118","REV_AT_EPOCH":"7209","SEMIMAJOR_AXIS":"6925.326","GP_ID":"190747302","ELEMENT_SET_NO":"999","PERIOD":"95.592","TLE_LINE2":"2 46118  53.0521 123.3630 0001759  88.3499 271.7691 15.06407484 72099","DECAY_DATE":null,"ARG_OF_PERICENTER":"88.3499","EPOCH":"2021-11-29T21:10:02.692704","SITE":"AFETR","COUNTRY_CODE":"US","RA_OF_ASC_NODE":"123.3630","MEAN_MOTION_DDOT":"0.0000000000000"},{"COUNTRY_CODE":"US","RA_OF_ASC_NODE":"124.6042","SITE":"AFETR","MEAN_MOTION_DDOT":"0.0000000000000","EPOCH":"2021-11-29T14:31:59.023200","ARG_OF_PERICENTER":"93.0959","DECAY_DATE":null,"TLE_LINE2":"2 46119  53.0544 124.6042 0002289  93.0959 267.0292 15.06356514 72035","SEMIMAJOR_AXIS":"6925.482","NORAD_CAT_ID":"46119","REV_AT_EPOCH":"7203","ELEMENT_SET_NO":"999","GP_ID":"190748053","PERIOD":"95.595","OBJECT_NAME":"STARLINK-1593","ECCENTRICITY":"0.00022890","LAUNCH_DATE":"2020-08-18","BSTAR":"0.00063568000000","CLASSIFICATION_TYPE":"U","MEAN_MOTION_DOT":"0.00009188","MEAN_ANOMALY":"267.0292","MEAN_ELEMENT_THEORY":"SGP4","EPHEMERIS_TYPE":"0","RCS_SIZE":"LARGE","INCLINATION":"53.0544","PERIAPSIS":"545.762","MEAN_MOTION":"15.06356514","FILE":"3227094","TLE_LINE1":"1 46119U 20057C   21333.60554425  .00009188  00000-0  63568-3 0  9995","APOAPSIS":"548.932","OBJECT_ID":"2020-057C","TIME_SYSTEM":"UTC","REF_FRAME":"TEME","OBJECT_TYPE":"PAYLOAD","CENTER_NAME":"EARTH"}];
